GLOBALSTAR M084         
1 38040U 11080A   25275.68689169 -.00000086  00000+0  97222-4 0  9999
2 38040  52.0001  81.2039 0000489  98.6251 342.6011 12.62269237636248
GLOBALSTAR M080         
1 38041U 11080B   25275.65834769 -.00000086  00000+0  98504-4 0  9999
2 38041  52.0050  82.9207 0001185  77.5123   3.1789 12.62269500636363
GLOBALSTAR M082         
1 38042U 11080C   25275.67923581 -.00000097  00000+0  40522-4 0  9992
2 38042  52.0094  38.3289 0001055  90.6718  15.8153 12.62268868637079
GLOBALSTAR M092         
1 38043U 11080D   25275.35044227 -.00000075  00000+0  15935-3 0  9994
2 38043  52.0063 129.7159 0000807  79.4897  91.1777 12.62266478635481
GLOBALSTAR M090         
1 38044U 11080E   25275.60608639 -.00000096  00000+0  40954-4 0  9999
2 38044  52.0146  32.4247 0000844 108.2236 265.0133 12.62262538637181
GLOBALSTAR M086         
1 38045U 11080F   25275.63139941 -.00000082  00000+0  12299-3 0  9993
2 38045  51.9920  32.6964 0001142 165.6458 208.0313 12.62277768637136
GLOBALSTAR M097         
1 39072U 13005A   25275.33904319 -.00000058  00000+0  25787-3 0  9998
2 39072  52.0054 308.2519 0000498 111.8608 248.2312 12.62266195584349
GLOBALSTAR M093         
1 39073U 13005B   25275.47138664 -.00000072  00000+0  17900-3 0  9990
2 39073  52.0108 301.0980 0000682 116.9974 243.0962 12.62264844584310
